IRIDIUM 155             
1 43573U 18061E   26046.57433410  .00000100  00000+0  28469-4 0  9996
2 43573  86.3947 107.5496 0002124  92.7501 267.3938 14.34217483395929
IRIDIUM 154             
1 43574U 18061F   26046.20647423  .00000303  00000+0  10130-3 0  9998
2 43574  86.3953 107.8311 0002021  97.4681 262.6744 14.34213873395925
IRIDIUM 163             
1 43575U 18061G   26046.53627927  .00000050  00000+0  10670-4 0  9991
2 43575  86.3950 107.6124 0002276  94.1630 265.9826 14.34217360395947
IRIDIUM 156             
1 43576U 18061H   26046.58067688  .00000048  00000+0  10198-4 0  9991
2 43576  86.3949 107.6007 0002070  90.7944 269.3489 14.34217823395945
IRIDIUM 164             
1 43577U 18061J   26046.21280649  .00000071  00000+0  18443-4 0  9993
2 43577  86.3950 107.7930 0002147 100.1049 260.0389 14.34217979395939
IRIDIUM 159             
1 43578U 18061K   26046.52995225  .00000263  00000+0  86795-4 0  9999
2 43578  86.3951 107.5995 0002348  98.2582 261.8880 14.34218450395943
IRIDIUM 180             
1 43922U 19002A   26046.52942753  .00000159  00000+0  49685-4 0  9997
2 43922  86.3935  44.4334 0002392  90.7265 269.4205 14.34217044371552
IRIDIUM 176             
1 43923U 19002B   26046.49679252  .00000520  00000+0  78559-4 0  9999
2 43923  86.6056  44.4077 0002444  87.5450 272.6047 14.72259757381349
IRIDIUM 168             
1 43924U 19002C   26046.52308937  .00000034  00000+0  49709-5 0  9999
2 43924  86.3935  44.5101 0002243  88.7453 271.4000 14.34217825371539
IRIDIUM 173             
1 43925U 19002D   26046.51040371 -.00000023  00000+0 -15126-4 0  9999
2 43925  86.3931  44.4092 0002168  85.3495 274.7948 14.34217279371517
IRIDIUM 169             
1 43926U 19002E   26046.52964361  .00000317  00000+0  97183-4 0  9992
2 43926  86.4167  76.0649 0002289  71.2176 288.9270 14.38610539372733
IRIDIUM 172             
1 43927U 19002F   26046.50406106  .00000036  00000+0  59164-5 0  9995
2 43927  86.3931  44.4195 0002360  91.8280 268.3186 14.34217978371521
IRIDIUM 175             
1 43928U 19002G   26046.42421137  .00001316  00000+0  20478-3 0  9994
2 43928  86.1548 343.2173 0001403  99.4091 260.7285 14.72250869381324
IRIDIUM 171             
1 43929U 19002H   26046.48503017  .00000000  00000+0 -71816-5 0  9993
2 43929  86.3940  44.7207 0001872  87.7365 272.4045 14.34217813371512
IRIDIUM 170             
1 43930U 19002J   26046.50299657  .00000518  00000+0  78231-4 0  9990
2 43930  86.6054  44.4084 0002443  92.0815 268.0682 14.72257684381350
IRIDIUM 167             
1 43931U 19002K   26046.47869266  .00000194  00000+0  62079-4 0  9999
2 43931  86.3933  44.4514 0001926  82.4730 277.6685 14.34216780371512
IRIDIUM 181             
1 56726U 23068S   26046.57202999  .00000355  00000+0  99352-4 0  9990
2 56726  86.4487 107.6504 0002316 105.4868 254.6589 14.43311607144897
IRIDIUM 177             
1 56727U 23068T   26046.43688154  .00001756  00000+0  22765-3 0  9996
2 56727  86.1960  26.5862 0002546  87.3673 272.7839 14.80228726148358
IRIDIUM 174             
1 56728U 23068U   26046.49061692  .00000568  00000+0  86110-4 0  9990
2 56728  86.6064  44.5489 0002587  90.0971 270.0543 14.72258452148118
IRIDIUM 178             
1 56729U 23068V   26046.49357798  .00001375  00000+0  17760-3 0  9997
2 56729  86.6485  76.2281 0001963  95.6478 264.4968 14.80227588148368
IRIDIUM 179             
1 56730U 23068W   26046.55581554  .00001232  00000+0  15877-3 0  9994
2 56730  86.6730  84.8276 0002318  91.4558 268.6929 14.80233630148379
